E-SPACE_L_00014029-47
1 67693U 23696FR  26070.40811343  .00000000  00000+0  00000-0 0  9995
2 67693  60.0000 280.0000 0000000   0.0000  49.1111 14.90908962    15
E-SPACE_L_00014029-48
1 67694U 23304QS  26070.40811343  .00000000  00000+0  00000-0 0  9992
2 67694  60.0000 280.0000 0000000   0.0000  50.1111 14.90908962    18
E-SPACE_L_00014029-49
1 67695U 26282MQ  26070.40811343  .00000000  00000+0  00000-0 0  9991
2 67695  60.0000 280.0000 0000000   0.0000  51.1111 14.90908962    10
E-SPACE_L_00014029-50
1 67696U 25929YN  26070.40811343  .00000000  00000+0  00000-0 0  9999
2 67696  60.0000 280.0000 0000000   0.0000  52.1111 14.90908962    12
E-SPACE_L_00014029-51
1 67697U 23051OQ  26070.40811343  .00000000  00000+0  00000-0 0  9994
2 67697  60.0000 280.0000 0000000   0.0000  53.1111 14.90908962    14
E-SPACE_L_00014029-52
1 67698U 22712Y   26070.40811343  .00000000  00000+0  00000-0 0  9998
2 67698  60.0000 280.0000 0000000   0.0000  54.1111 14.90908962    16
E-SPACE_L_00014029-53
1 67699U 23018TO  26070.40811343  .00000000  00000+0  00000-0 0  9999
2 67699  60.0000 280.0000 0000000   0.0000  55.1111 14.90908962    18
E-SPACE_L_00014029-54
1 67700U 26465QB  26070.40811343  .00000000  00000+0  00000-0 0  9991
2 67700  60.0000 280.0000 0000000   0.0000  56.1111 14.90908962    12
E-SPACE_L_00014029-55
1 67701U 24365IA  26070.40811343  .00000000  00000+0  00000-0 0  9999
2 67701  60.0000 280.0000 0000000   0.0000  57.1111 14.90908962    14
E-SPACE_L_00014029-56
1 67702U 24596QS  26070.40811343  .00000000  00000+0  00000-0 0  9996
2 67702  60.0000 280.0000 0000000   0.0000  58.1111 14.90908962    16
E-SPACE_L_00014029-57
1 67703U 22399I   26070.40811343  .00000000  00000+0  00000-0 0  9996
2 67703  60.0000 280.0000 0000000   0.0000  59.1111 14.90908962    18
E-SPACE_L_00014029-58
1 67704U 22263PM  26070.40811343  .00000000  00000+0  00000-0 0  9997
2 67704  60.0000 280.0000 0000000   0.0000  60.1111 14.90908962    11
E-SPACE_L_00014029-59
1 67705U 25247AN  26070.40811343  .00000000  00000+0  00000-0 0  9993
2 67705  60.0000 280.0000 0000000   0.0000  61.1111 14.90908962    13
E-SPACE_L_00014029-60
1 67706U 22549ZF  26070.40811343  .00000000  00000+0  00000-0 0  9996
2 67706  60.0000 280.0000 0000000   0.0000  62.1111 14.90908962    15
E-SPACE_L_00014029-61
1 67707U 24472YM  26070.40811343  .00000000  00000+0  00000-0 0  9994
2 67707  60.0000 280.0000 0000000   0.0000  63.1111 14.90908962    17
E-SPACE_L_00014029-62
1 67708U 25250QV  26070.40811343  .00000000  00000+0  00000-0 0  9990
2 67708  60.0000 280.0000 0000000   0.0000  64.1111 14.90908962    19
E-SPACE_L_00014029-63
1 67709U 25900UP  26070.40811343  .00000000  00000+0  00000-0 0  9993
2 67709  60.0000 280.0000 0000000   0.0000  65.1111 14.90908962    11
E-SPACE_L_00014029-64
1 67710U 23447SH  26070.40811343  .00000000  00000+0  00000-0 0  9999
2 67710  60.0000 280.0000 0000000   0.0000  66.1111 14.90908962    14
E-SPACE_L_00014029-65
1 67711U 24452GK  26070.40811343  .00000000  00000+0  00000-0 0  9997
2 67711  60.0000 280.0000 0000000   0.0000  67.1111 14.90908962    16
E-SPACE_L_00014029-66
1 67712U 22840VP  26070.40811343  .00000000  00000+0  00000-0 0  9997
2 67712  60.0000 280.0000 0000000   0.0000  68.1111 14.90908962    18
E-SPACE_L_00014029-67
1 67713U 22526BJ  26070.40811343  .00000000  00000+0  00000-0 0  9999
2 67713  60.0000 280.0000 0000000   0.0000  69.1111 14.90908962    10
E-SPACE_L_00014029-68
1 67714U 24302WM  26070.40811343  .00000000  00000+0  00000-0 0  9994
2 67714  60.0000 280.0000 0000000   0.0000  70.1111 14.90908962    13
E-SPACE_L_00014029-69
1 67715U 26103CT  26070.40811343  .00000000  00000+0  00000-0 0  9996
2 67715  60.0000 280.0000 0000000   0.0000  71.1111 14.90908962    15
E-SPACE_L_00014029-70
1 67716U 26050KH  26070.40811343  .00000000  00000+0  00000-0 0  9998
2 67716  60.0000 280.0000 0000000   0.0000  72.1111 14.90908962    17
E-SPACE_L_00014029-71
1 67717U 24418JB  26070.40811343  .00000000  00000+0  00000-0 0  9995
2 67717  60.0000 280.0000 0000000   0.0000  73.1111 14.90908962    19
E-SPACE_L_00014029-72
1 67718U 25093IM  26070.40811343  .00000000  00000+0  00000-0 0  9996
2 67718  60.0000 280.0000 0000000   0.0000  74.1111 14.90908962    11
E-SPACE_L_00014029-73
1 67719U 23064UI  26070.40811343  .00000000  00000+0  00000-0 0  9993
2 67719  60.0000 280.0000 0000000   0.0000  75.1111 14.90908962    13
E-SPACE_L_00014029-74
1 67720U 26513IE  26070.40811343  .00000000  00000+0  00000-0 0  9997
2 67720  60.0000 280.0000 0000000   0.0000  76.1111 14.90908962    16
E-SPACE_L_00014029-75
1 67721U 24895HU  26070.40811343  .00000000  00000+0  00000-0 0  9999
2 67721  60.0000 280.0000 0000000   0.0000  77.1111 14.90908962    18
E-SPACE_L_00014029-76
1 67722U 22823AX  26070.40811343  .00000000  00000+0  00000-0 0  9999
2 67722  60.0000 280.0000 0000000   0.0000  78.1111 14.90908962    10
E-SPACE_L_00014029-77
1 67723U 24999YW  26070.40811343  .00000000  00000+0  00000-0 0  9996
2 67723  60.0000 280.0000 0000000   0.0000  79.1111 14.90908962    12
E-SPACE_L_00014029-78
1 67724U 25197TM  26070.40811343  .00000000  00000+0  00000-0 0  9998
2 67724  60.0000 280.0000 0000000   0.0000  80.1111 14.90908962    15
E-SPACE_L_00014029-79
1 67725U 25400RD  26070.40811343  .00000000  00000+0  00000-0 0  9996
2 67725  60.0000 280.0000 0000000   0.0000  81.1111 14.90908962    17
E-SPACE_L_00014029-80
1 67726U 23039DO  26070.40811343  .00000000  00000+0  00000-0 0  9993
2 67726  60.0000 280.0000 0000000   0.0000  82.1111 14.90908962    19
E-SPACE_L_00014029-81
1 67727U 22254FH  26070.40811343  .00000000  00000+0  00000-0 0  9992
2 67727  60.0000 280.0000 0000000   0.0000  83.1111 14.90908962    11
E-SPACE_L_00014029-82
1 67728U 24674X   26070.40811343  .00000000  00000+0  00000-0 0  9991
2 67728  60.0000 280.0000 0000000   0.0000  84.1111 14.90908962    13
E-SPACE_L_00014029-83
1 67729U 23815NZ  26070.40811343  .00000000  00000+0  00000-0 0  9998
2 67729  60.0000 280.0000 0000000   0.0000  85.1111 14.90908962    15
E-SPACE_L_00014029-84
1 67730U 22462FD  26070.40811343  .00000000  00000+0  00000-0 0  9997
2 67730  60.0000 280.0000 0000000   0.0000  86.1111 14.90908962    18
E-SPACE_L_00014029-85
1 67731U 22520ZI  26070.40811343  .00000000  00000+0  00000-0 0  9993
2 67731  60.0000 280.0000 0000000   0.0000  87.1111 14.90908962    10
E-SPACE_L_00014029-86
1 67732U 23005JM  26070.40811343  .00000000  00000+0  00000-0 0  9993
2 67732  60.0000 280.0000 0000000   0.0000  88.1111 14.90908962    12
E-SPACE_L_00014029-87
1 67733U 25457XX  26070.40811343  .00000000  00000+0  00000-0 0  9997
2 67733  60.0000 280.0000 0000000   0.0000  89.1111 14.90908962    14
E-SPACE_L_00014029-88
1 67734U 25743JV  26070.40811343  .00000000  00000+0  00000-0 0  9996
2 67734  60.0000 280.0000 0000000   0.0000  90.1111 14.90908962    17
E-SPACE_L_00014029-89
1 67735U 23113SF  26070.40811343  .00000000  00000+0  00000-0 0  9996
2 67735  60.0000 280.0000 0000000   0.0000  91.1111 14.90908962    19
E-SPACE_L_00014029-90
1 67736U 22232KX  26070.40811343  .00000000  00000+0  00000-0 0  9998
2 67736  60.0000 280.0000 0000000   0.0000  92.1111 14.90908962    11
E-SPACE_L_00014029-91
1 67737U 23375HW  26070.40811343  .00000000  00000+0  00000-0 0  9998
2 67737  60.0000 280.0000 0000000   0.0000  93.1111 14.90908962    13
E-SPACE_L_00014029-92
1 67738U 23204NR  26070.40811343  .00000000  00000+0  00000-0 0  9990
2 67738  60.0000 280.0000 0000000   0.0000  94.1111 14.90908962    15
E-SPACE_L_00014029-93
1 67739U 25688RL  26070.40811343  .00000000  00000+0  00000-0 0  9999
2 67739  60.0000 280.0000 0000000   0.0000  95.1111 14.90908962    17
E-SPACE_L_00014029-94
1 67740U 25196IX  26070.40811343  .00000000  00000+0  00000-0 0  9995
2 67740  60.0000 280.0000 0000000   0.0000  96.1111 14.90908962    10
E-SPACE_L_00014029-95
1 67741U 25596HR  26070.40811343  .00000000  00000+0  00000-0 0  9990
2 67741  60.0000 280.0000 0000000   0.0000  97.1111 14.90908962    12
E-SPACE_L_00014029-96
1 67742U 22260AZ  26070.40811343  .00000000  00000+0  00000-0 0  9996
2 67742  60.0000 280.0000 0000000   0.0000  98.1111 14.90908962    14
E-SPACE_L_00014029-97
1 67743U 25913XE  26070.40811343  .00000000  00000+0  00000-0 0  9995
2 67743  60.0000 280.0000 0000000   0.0000  99.1111 14.90908962    16
E-SPACE_L_00014029-98
1 67744U 26137WD  26070.40811343  .00000000  00000+0  00000-0 0  9995
2 67744  60.0000 280.0000 0000000   0.0000 100.1111 14.90908962    10
E-SPACE_L_00014029-99
1 67745U 25521MJ  26070.40811343  .00000000  00000+0  00000-0 0  9992
2 67745  60.0000 280.0000 0000000   0.0000 101.1111 14.90908962    12
E-SPACE_L_00014029-100
1 67746U 24498CN  26070.40811343  .00000000  00000+0  00000-0 0  9995
2 67746  60.0000 280.0000 0000000   0.0000 102.1111 14.90908962    14
E-SPACE_L_00014029-101
1 67747U 25993ZL  26070.40811343  .00000000  00000+0  00000-0 0  9997
2 67747  60.0000 280.0000 0000000   0.0000 103.1111 14.90908962    16
E-SPACE_L_00014029-102
1 67748U 25864Z   26070.40811343  .00000000  00000+0  00000-0 0  9995
2 67748  60.0000 280.0000 0000000   0.0000 104.1111 14.90908962    18
E-SPACE_L_00014029-103
1 67749U 24047HK  26070.40811343  .00000000  00000+0  00000-0 0  9998
2 67749  60.0000 280.0000 0000000   0.0000 105.1111 14.90908962    10
E-SPACE_L_00014029-104
1 67750U 25156DV  26070.40811343  .00000000  00000+0  00000-0 0  9992
2 67750  60.0000 280.0000 0000000   0.0000 106.1111 14.90908962    13
E-SPACE_L_00014029-105
1 67751U 26425PY  26070.40811343  .00000000  00000+0  00000-0 0  9993
2 67751  60.0000 280.0000 0000000   0.0000 107.1111 14.90908962    15
E-SPACE_L_00014029-106
1 67752U 25162XN  26070.40811343  .00000000  00000+0  00000-0 0  9991
2 67752  60.0000 280.0000 0000000   0.0000 108.1111 14.90908962    17
E-SPACE_L_00014029-107
1 67753U 22405EP  26070.40811343  .00000000  00000+0  00000-0 0  9999
2 67753  60.0000 280.0000 0000000   0.0000 109.1111 14.90908962    19
